{
  "norad_id": 59530,
  "name": "STARLINK-31392",
  "history": [
    {
      "epoch": "2026-03-28T15:24:53.930304Z",
      "apogee_km": 483.758541106773,
      "perigee_km": 482.3218106061486,
      "latitude_deg": 1.2429355220282031e-05,
      "longitude_deg": 153.74359706899037,
      "height_km": 482.65176336462645,
      "semi_major_axis_km": 6861.17717585646,
      "eccentricity": 0.0001047,
      "inclination_deg": 43.0016,
      "raan_deg": 211.0281,
      "arg_perigee_deg": 283.2778,
      "mean_anomaly_deg": 76.7957,
      "mean_motion_rev_day": 15.27582979
    },
    {
      "epoch": "2026-03-30T00:22:10.482240Z",
      "apogee_km": 484.2560808406888,
      "perigee_km": 481.79539343664146,
      "latitude_deg": 2.786876634180252e-05,
      "longitude_deg": 10.314150280479877,
      "height_km": 482.6555360341614,
      "semi_major_axis_km": 6861.162737138665,
      "eccentricity": 0.00017932,
      "inclination_deg": 43.0018,
      "raan_deg": 203.271,
      "arg_perigee_deg": 276.882,
      "mean_anomaly_deg": 83.1828,
      "mean_motion_rev_day": 15.27587801
    },
    {
      "epoch": "2026-03-30T14:29:35.549952Z",
      "apogee_km": 484.57378432087717,
      "perigee_km": 481.53715775704404,
      "latitude_deg": -2.6102848011024525e-05,
      "longitude_deg": 154.55660773667762,
      "height_km": 482.44534790791903,
      "semi_major_axis_km": 6861.19247103896,
      "eccentricity": 0.00022129,
      "inclination_deg": 43.002,
      "raan_deg": 199.948,
      "arg_perigee_deg": 284.7935,
      "mean_anomaly_deg": 75.2671,
      "mean_motion_rev_day": 15.27577871
    },
    {
      "epoch": "2026-03-30T16:03:44.886528Z",
      "apogee_km": 484.0456066290353,
      "perigee_km": 482.05915507949067,
      "latitude_deg": -9.535862565706028e-06,
      "longitude_deg": 130.58377585336976,
      "height_km": 482.6588450750571,
      "semi_major_axis_km": 6861.189380854263,
      "eccentricity": 0.00014476,
      "inclination_deg": 43.0002,
      "raan_deg": 199.5785,
      "arg_perigee_deg": 279.8732,
      "mean_anomaly_deg": 80.1956,
      "mean_motion_rev_day": 15.27578903
    },
    {
      "epoch": "2026-03-31T14:01:55.985664Z",
      "apogee_km": 484.0861921495334,
      "perigee_km": 481.9880451040581,
      "latitude_deg": -3.8637864081212184e-05,
      "longitude_deg": 154.96413405751974,
      "height_km": 482.8614528165547,
      "semi_major_axis_km": 6861.1741186267955,
      "eccentricity": 0.0001529,
      "inclination_deg": 42.9992,
      "raan_deg": 194.4074,
      "arg_perigee_deg": 267.3983,
      "mean_anomaly_deg": 92.6693,
      "mean_motion_rev_day": 15.27584
    },
    {
      "epoch": "2026-03-31T23:26:51.924768Z",
      "apogee_km": 484.54572224772073,
      "perigee_km": 481.4886663849011,
      "latitude_deg": 7.259693600352596e-06,
      "longitude_deg": 11.12962152407134,
      "height_km": 482.5781299809077,
      "semi_major_axis_km": 6861.15419431631,
      "eccentricity": 0.00022278,
      "inclination_deg": 43.0027,
      "raan_deg": 192.1926,
      "arg_perigee_deg": 278.151,
      "mean_anomaly_deg": 81.9089,
      "mean_motion_rev_day": 15.27590654
    },
    {
      "epoch": "2026-04-02T14:40:45.923232Z",
      "apogee_km": 484.1496132544662,
      "perigee_km": 481.7933713760349,
      "latitude_deg": 2.9749559180814264e-06,
      "longitude_deg": 131.8116377661059,
      "height_km": 482.456587238544,
      "semi_major_axis_km": 6861.10849231525,
      "eccentricity": 0.00017171,
      "inclination_deg": 43.0019,
      "raan_deg": 182.9608,
      "arg_perigee_deg": 284.354,
      "mean_anomaly_deg": 75.7121,
      "mean_motion_rev_day": 15.27605917
    },
    {
      "epoch": "2026-04-02T22:31:33.208320Z",
      "apogee_km": 484.06694515257277,
      "perigee_km": 481.9491841169229,
      "latitude_deg": 3.2220514084684686e-05,
      "longitude_deg": 11.945404988940467,
      "height_km": 482.473345898372,
      "semi_major_axis_km": 6861.1450646347475,
      "eccentricity": 0.00015433,
      "inclination_deg": 43.0006,
      "raan_deg": 181.1138,
      "arg_perigee_deg": 287.1133,
      "mean_anomaly_deg": 72.955,
      "mean_motion_rev_day": 15.27593703
    },
    {
      "epoch": "2026-04-03T14:13:07.908096Z",
      "apogee_km": 484.88957709037277,
      "perigee_km": 481.249021028093,
      "latitude_deg": 1.2571058914455654e-05,
      "longitude_deg": 132.21261416496787,
      "height_km": 482.90406932620823,
      "semi_major_axis_km": 6861.206299059233,
      "eccentricity": 0.0002653,
      "inclination_deg": 43.0049,
      "raan_deg": 177.4201,
      "arg_perigee_deg": 268.2181,
      "mean_anomaly_deg": 91.8367,
      "mean_motion_rev_day": 15.27573253
    },
    {
      "epoch": "2026-04-04T15:19:37.010784Z",
      "apogee_km": 483.93695580481653,
      "perigee_km": 482.1173750681437,
      "latitude_deg": 1.5658563447150758e-05,
      "longitude_deg": 108.65330324983259,
      "height_km": 482.7650225351977,
      "semi_major_axis_km": 6861.16416543648,
      "eccentricity": 0.0001326,
      "inclination_deg": 42.9995,
      "raan_deg": 171.5132,
      "arg_perigee_deg": 272.4398,
      "mean_anomaly_deg": 87.6302,
      "mean_motion_rev_day": 15.27587324
    }
  ]
}